ONEWEB-0627             
1 55168U 23004AE  23158.91667824 -.00739800  00000+0 -66519+0 0  9990
2 55168  87.3345 226.7933 0003011 111.7340 142.4510 13.86959775 21809
ONEWEB-0628             
1 55169U 23004AF  23158.54571180  .00001106  00000+0  19812-3 0  9996
2 55169  86.6327 223.3413 0007283  97.6422 262.5619 14.65931600 21995
ONEWEB-0629             
1 55170U 23004AG  23158.91667824 -.00725682  00000+0 -58774+0 0  9990
2 55170  87.2637 227.0850 0016791  91.1352 262.5966 13.92893335 21782
ONEWEB-0631             
1 55171U 23004AH  23158.21366065  .00001145  00000+0  20528-3 0  9996
2 55171  86.6319 223.4831 0004117 105.2370 254.9299 14.65941740 21945
ONEWEB-0709             
1 55172U 23004AJ  23158.72660124  .00000060  00000+0  10896-3 0  9998
2 55172  87.9470 240.7439 0001959 100.1380 259.9976 13.24235004 20916
ONEWEB-0710             
1 55173U 23004AK  23158.58334491 -.00634964  00000+0 -55029+0 0  9999
2 55173  87.3211 226.9942 0017647  88.3087 125.0028 13.89060713  1308
ONEWEB-0711             
1 55174U 23004AL  23158.72281668  .00000016  00000+0  64436-5 0  9994
2 55174  87.9460 240.7047 0002422 104.5789 255.5615 13.24426107 20883
ONEWEB-0713             
1 55175U 23004AM  23158.73282245  .00000053  00000+0  93707-4 0  9991
2 55175  87.9414 240.7009 0001998 112.4315 247.7032 13.24026500 20868
ONEWEB-0715             
1 55176U 23004AN  23158.26043404  .00000090  00000+0  18001-3 0  9996
2 55176  87.9445 240.8385 0001725 107.1898 252.9427 13.24323469 20844
ONEWEB-0716             
1 55177U 23004AP  23158.91667824 -.00751844  00000+0 -65500+0 0  9991
2 55177  87.3219 226.8935 0016037  82.8559  67.7933 13.88788381 21807
ONEWEB-0717             
1 55178U 23004AQ  23158.91667824 -.00877533  00000+0 -72611+0 0  9997
2 55178  87.3310 226.2180 0011945  79.9062  23.2089 13.92283161 21849
ONEWEB-0719             
1 55179U 23004AR  23158.58334491 -.00664850  00000+0 -57675+0 0  9991
2 55179  87.3114 226.9214 0005356  63.1603 142.2228 13.89206297  1309
ONEWEB-0530             
1 55796U 23029A   23158.73180532  .00002439  00000+0  23774-3 0  9999
2 55796  86.5068 159.4772 0003855 115.0239 245.1389 14.92042736 14111
ONEWEB-0534             
1 55797U 23029B   23158.73486956  .00002435  00000+0  23762-3 0  9992
2 55797  86.5022 159.4254 0003958 114.9043 245.2597 14.91993945 14097
ONEWEB-0556             
1 55798U 23029C   23158.45848357  .00002434  00000+0  23668-3 0  9993
2 55798  86.5058 159.5826 0004129  98.5628 261.6068 14.92127050 13372
ONEWEB-0562             
1 55799U 23029D   23158.74148291  .00002592  00000+0  25380-3 0  9994
2 55799  86.5024 159.4318 0004287 107.0928 253.0769 14.91879632 14097
ONEWEB-0563             
1 55800U 23029E   23158.26681597  .00002304  00000+0  22481-3 0  9995
2 55800  86.5070 159.6900 0003597 117.7164 242.4429 14.91971050 13342
ONEWEB-0564             
1 55801U 23029F   23158.72839484  .00002476  00000+0  24097-3 0  9992
2 55801  86.5027 159.4287 0004087  99.0012 261.1679 14.92101473 14116
ONEWEB-0638             
1 55802U 23029G   23158.58334491 -.01016346  00000+0 -12662+0 0  9990
2 55802  86.5628 159.5085 0003584 113.7138 340.5031 14.85723342  1303
ONEWEB-0639             
1 55803U 23029H   23158.91667824 -.00825179  00000+0 -94717+0 0  9999
2 55803  87.4413 165.5592 0005951 285.9658   3.9085 13.72761717 13715
ONEWEB-0640             
1 55804U 23029J   23158.58334491 -.00969180  00000+0 -13511+0 0  9998
2 55804  86.6028 159.5144 0003831 114.2835 352.0750 14.80932782 14070
ONEWEB-0641             
1 55805U 23029K   23158.91667824  .00000016  00000+0  00000+0 0  9996
2 55805  87.4194 165.6198 0012453 296.2062  35.4265 13.71007002 13725
ONEWEB-0642             
1 55806U 23029L   23158.91667824  .00000015  00000+0  00000+0 0  9996
2 55806  87.4444 165.2961 0006706 278.5394  56.0086 13.68369638 13736
ONEWEB-0643             
1 55807U 23029M   23158.58334491 -.00954844  00000+0 -13277+0 0  9991
2 55807  86.5989 159.5307 0002808 108.3479 247.7012 14.81000835 14099
ONEWEB-0644             
1 55808U 23029N   23158.91667824  .00000016  00000+0  00000+0 0  9999
2 55808  87.4183 165.6208 0006699 305.5714 242.2692 13.73147773 13714
ONEWEB-0645             
1 55809U 23029P   23158.91667824 -.00793845  00000+0 -92876+0 0  9993
2 55809  87.4427 165.5292 0008459 309.8653 106.9942 13.71474719 13729
ONEWEB-0646             
1 55810U 23029Q   23158.91667824  .00000015  00000+0  00000+0 0  9991
2 55810  87.4320 165.5128 0007136 288.6069  85.3367 13.67997524 13716
ONEWEB-0648             
1 55811U 23029R   23158.58334491 -.01000470  00000+0 -13060+0 0  9994
2 55811  86.5780 159.5056 0003319 110.7995 331.4540 14.83760342 14109
ONEWEB-0649             
1 55812U 23029S   23158.91667824  .00000016  00000+0  00000+0 0  9994
2 55812  87.4590 165.5771 0009994 285.1886 245.9702 13.74718614 13732
ONEWEB-0650             
1 55813U 23029T   23158.58334491 -.00837657  00000+0 -95295+0 0  9990
2 55813  87.4167 165.6784 0008015 284.5868 200.9668 13.73344081 13660
ONEWEB-0652             
1 55814U 23029U   23158.58334491 -.00980350  00000+0 -13744+0 0  9999
2 55814  86.6012 159.5386 0002236 110.3256 218.4649 14.80742963 14076
ONEWEB-0653             
1 55815U 23029V   23158.58334491 -.01002115  00000+0 -13017+0 0  9998
2 55815  86.5756 159.5257 0004036 105.3581 274.1537 14.83964061 14076
ONEWEB-0654             
1 55816U 23029W   23158.58334491 -.01016193  00000+0 -12479+0 0  9991
2 55816  86.5603 159.4823 0004264 110.7570  97.7842 14.86305608 14074
ONEWEB-0656             
1 55817U 23029X   23158.72046213  .00002399  00000+0  22609-3 0  9990
2 55817  86.5035 159.3661 0003661 104.2354 255.9281 14.93368607 14106
ONEWEB-0657             
1 55818U 23029Y   23158.91667824 -.00952288  00000+0 -98242+0 0  9994
2 55818  87.3909 165.8209 0011359 299.0042 264.7125 13.79093581 13705
ONEWEB-0658             
1 55819U 23029Z   23158.91667824  .00000016  00000+0  00000+0 0  9991
2 55819  87.4348 165.5966 0007669 280.3562 291.4877 13.75542977 13727
ONEWEB-0660             
1 55820U 23029AA  23158.58334491 -.01005571  00000+0 -12971+0 0  9991
2 55820  86.5733 159.5211 0004323  84.8432 317.8971 14.84260007  1301
ONEWEB-0661             
1 55821U 23029AB  23158.58334491 -.01001175  00000+0 -13365+0 0  9996
2 55821  86.5873 159.4823 0004520  93.9419  80.7525 14.82830069  1300
ONEWEB-0662             
1 55822U 23029AC  23158.58334491 -.00971576  00000+0 -12371+0 0  9993
2 55822  86.5722 159.5213 0004796 105.6549 309.8253 14.84683440 14104
ONEWEB-0663             
1 55823U 23029AD  23158.72500898 -.00000044  00000+0 -71286-5 0  9995
2 55823  86.5057 159.3906 0004318 107.7070 252.4630 14.93296876 14100
ONEWEB-0664             
1 55824U 23029AE  23158.39760137  .00002665  00000+0  25287-3 0  9990
2 55824  86.5028 159.5138 0003141 113.8897 246.2661 14.93157717 13379
ONEWEB-0665             
1 55825U 23029AF  23158.58334491 -.00941801  00000+0 -11918+0 0  9990
2 55825  86.5706 159.4857 0003400  84.7757  88.6630 14.84854338 14074
ONEWEB-0666             
1 55826U 23029AG  23158.72794247  .00002526  00000+0  23903-3 0  9997
2 55826  86.5062 159.3970 0003283 101.3040 258.8557 14.93240206 14101
ONEWEB-0667             
1 55827U 23029AH  23158.71927971  .00002237  00000+0  21048-3 0  9996
2 55827  86.5046 159.3743 0003272 110.0633 250.0948 14.93391026 14100
ONEWEB-0669             
1 55828U 23029AJ  23158.72298490  .00002504  00000+0  23640-3 0  9992
2 55828  86.5036 159.3663 0004180  92.1534 268.0173 14.93324006 14103
ONEWEB-0670             
1 55829U 23029AK  23158.58334491 -.01009690  00000+0 -13036+0 0  9999
2 55829  86.5781 159.4956 0003664  95.7178  97.6886 14.84240110 14083
ONEWEB-0671             
1 55830U 23029AL  23158.91667824  .00000016  00000+0  00000+0 0  9994
2 55830  87.4252 165.5404 0010041 287.4276 149.4132 13.70259791 13718
ONEWEB-0672             
1 55831U 23029AM  23158.72578216  .00002570  00000+0  24296-3 0  9994
2 55831  86.5028 159.3608 0004051 108.9380 251.2288 14.93276416 14101
ONEWEB-0673             
1 55832U 23029AN  23158.91667824 -.00803764  00000+0 -94959+0 0  9995
2 55832  87.4307 165.6434 0006306 281.6428 244.3538 13.70926575 13748
ONEWEB-0674             
1 55833U 23029AP  23158.91667824 -.00911977  00000+0 -11479+0 0  9998
2 55833  86.5722 159.3482 0005288 101.9392 102.7095 14.84968123 14135
ONEWEB-0675             
1 55834U 23029AQ  23158.58334491 -.00880000  00000+0 -99264+0 0  9993
2 55834  87.3907 165.6304 0008878 281.0764  94.8454 13.74019531  1307
ONEWEB-0720             
1 55835U 23029AR  23158.91667824  .00000015  00000+0  00000+0 0  9998
2 55835  87.3565 165.6670 0010321 283.1853  78.6567 13.64807728 13661
ONEWEB-0537             
1 56046U 23043A   23158.33711386  .00003114  00000+0  33263-3 0  9992
2 56046  86.8962 115.0530 0005681  67.3174 292.8652 14.88478426 11036
ONEWEB-0538             
1 56047U 23043B   23158.32810710  .00001943  00000+0  20635-3 0  9990
2 56047  86.9008 115.0794 0004891  80.4275 279.7503 14.88502995 11039
ONEWEB-0546             
1 56048U 23043C   23158.63613774  .00003163  00000+0  33800-3 0  9990
2 56048  86.8933 114.9479 0001427 121.4166 238.7200 14.88475198 11999
ONEWEB-0547             
1 56049U 23043D   23158.32434046  .00001691  00000+0  17918-3 0  9996
2 56049  86.9929 115.5803 0005291  75.0379 285.1432 14.88501435 11039
ONEWEB-0548             
1 56050U 23043E   23158.35383507  .00003236  00000+0  34644-3 0  9998
2 56050  86.9020 115.0787 0001996 106.3666 253.7780 14.88414608 11946
ONEWEB-0549             
1 56051U 23043F   23158.32606640  .00003095  00000+0  33037-3 0  9990
2 56051  86.9955 115.5944 0005197  69.3243 290.8540 14.88501999 11036
ONEWEB-0550             
1 56052U 23043G   23158.35468618  .00003344  00000+0  35739-3 0  9993
2 56052  86.9945 115.5807 0005428  65.6619 294.5174 14.88477744 11031
